start=new Date('2022-01-28T00:00:00.000Z').valueOf();
sats=[{"MEAN_ELEMENT_THEORY":"SGP4","PERIAPSIS":"546.075","MEAN_MOTION":"15.06396692","MEAN_MOTION_DOT":"0.00001164","RA_OF_ASC_NODE":"15.7843","MEAN_MOTION_DDOT":"0.0000000000000","DECAY_DATE":null,"EPOCH":"2022-01-27T08:56:45.653568","OBJECT_NAME":"STARLINK-2615","APOAPSIS":"548.373","SEMIMAJOR_AXIS":"6925.359","GP_ID":"194751283","RCS_SIZE":"LARGE","REV_AT_EPOCH":"3825","INCLINATION":"53.0575","BSTAR":"0.00009705600000","NORAD_CAT_ID":"48678","MEAN_ANOMALY":"295.0841","OBJECT_TYPE":"PAYLOAD","TIME_SYSTEM":"UTC","OBJECT_ID":"2021-044AS","REF_FRAME":"TEME","ECCENTRICITY":"0.00016590","LAUNCH_DATE":"2021-05-26","CLASSIFICATION_TYPE":"U","TLE_LINE2":"2 48678  53.0575  15.7843 0001659  65.0320 295.0841 15.06396692 38259","CENTER_NAME":"EARTH","EPHEMERIS_TYPE":"0","FILE":"3285187","TLE_LINE1":"1 48678U 21044AS  22027.37275062  .00001164  00000-0  97056-4 0  9992","PERIOD":"95.592","SITE":"AFETR","ARG_OF_PERICENTER":"65.0320","COUNTRY_CODE":"US","ELEMENT_SET_NO":"999"},{"GP_ID":"194744145","OBJECT_NAME":"STARLINK-2648","APOAPSIS":"548.444","SEMIMAJOR_AXIS":"6925.326","RCS_SIZE":"LARGE","REV_AT_EPOCH":"3740","BSTAR":"0.00013639000000","INCLINATION":"53.0571","PERIAPSIS":"545.938","MEAN_MOTION":"15.06407375","MEAN_ELEMENT_THEORY":"SGP4","MEAN_MOTION_DOT":"0.00001751","DECAY_DATE":null,"MEAN_MOTION_DDOT":"0.0000000000000","RA_OF_ASC_NODE":"16.1033","EPOCH":"2022-01-27T07:15:55.079712","EPHEMERIS_TYPE":"0","FILE":"3284946","TLE_LINE1":"1 48679U 21044AT  22027.30272083  .00001751  00000-0  13639-3 0  9992","PERIOD":"95.592","ELEMENT_SET_NO":"999","SITE":"AFETR","ARG_OF_PERICENTER":"75.9043","COUNTRY_CODE":"US","OBJECT_TYPE":"PAYLOAD","NORAD_CAT_ID":"48679","MEAN_ANOMALY":"284.2147","REF_FRAME":"TEME","TIME_SYSTEM":"UTC","OBJECT_ID":"2021-044AT","LAUNCH_DATE":"2021-05-26","CLASSIFICATION_TYPE":"U","ECCENTRICITY":"0.00018090","CENTER_NAME":"EARTH","TLE_LINE2":"2 48679  53.0571  16.1033 0001809  75.9043 284.2147 15.06407375 37407"},{"ELEMENT_SET_NO":"999","SITE":"AFETR","COUNTRY_CODE":"US","ARG_OF_PERICENTER":"58.1166","TLE_LINE1":"1 48680U 21044AU  22027.69711981  .00001547  00000-0  12272-3 0  9996","PERIOD":"95.592","FILE":"3285086","EPHEMERIS_TYPE":"0","CENTER_NAME":"EARTH","TLE_LINE2":"2 48680  53.0568  14.3194 0001628  58.1166 301.9981 15.06399886 38367","CLASSIFICATION_TYPE":"U","LAUNCH_DATE":"2021-05-26","ECCENTRICITY":"0.00016280","REF_FRAME":"TEME","TIME_SYSTEM":"UTC","OBJECT_ID":"2021-044AU","OBJECT_TYPE":"PAYLOAD","NORAD_CAT_ID":"48680","MEAN_ANOMALY":"301.9981","BSTAR":"0.00012272000000","INCLINATION":"53.0568","RCS_SIZE":"LARGE","REV_AT_EPOCH":"3836","GP_ID":"194748653","OBJECT_NAME":"STARLINK-2649","APOAPSIS":"548.341","SEMIMAJOR_AXIS":"6925.349","EPOCH":"2022-01-27T16:43:51.151584","DECAY_DATE":null,"RA_OF_ASC_NODE":"14.3194","MEAN_MOTION_DDOT":"0.0000000000000","MEAN_MOTION_DOT":"0.00001547","PERIAPSIS":"546.086","MEAN_MOTION":"15.06399886","MEAN_ELEMENT_THEORY":"SGP4"},{"GP_ID":"194743146","APOAPSIS":"548.231","OBJECT_NAME":"STARLINK-2725","SEMIMAJOR_AXIS":"6925.290","BSTAR":"-0.00218410000000","INCLINATION":"53.0483","RCS_SIZE":"LARGE","REV_AT_EPOCH":"359","MEAN_MOTION_DOT":"-0.00032682","PERIAPSIS":"546.078","MEAN_MOTION":"15.06419213","MEAN_ELEMENT_THEORY":"SGP4","EPOCH":"2022-01-27T10:00:01.999584","DECAY_DATE":null,"MEAN_MOTION_DDOT":"0.0000000000000","RA_OF_ASC_NODE":"345.5930","EPHEMERIS_TYPE":"0","FILE":"3284946","ELEMENT_SET_NO":"999","SITE":"AFETR","COUNTRY_CODE":"US","ARG_OF_PERICENTER":"67.2452","PERIOD":"95.591","TLE_LINE1":"1 48681U 21044AV  22027.41668981 -.00032682  00000-0 -21841-2 0  9995","REF_FRAME":"TEME","TIME_SYSTEM":"UTC","OBJECT_ID":"2021-044AV","OBJECT_TYPE":"PAYLOAD","NORAD_CAT_ID":"48681","MEAN_ANOMALY":"341.4088","CENTER_NAME":"EARTH","TLE_LINE2":"2 48681  53.0483 345.5930 0001554  67.2452 341.4088 15.06419213  3599","CLASSIFICATION_TYPE":"U","LAUNCH_DATE":"2021-05-26","ECCENTRICITY":"0.00015540"},{"TLE_LINE1":"1 48682U 21044AW  22027.91667824 -.00007154  00000-0 -46194-3 0  9991","PERIOD":"95.593","COUNTRY_CODE":"US","ARG_OF_PERICENTER":"67.3088","SITE":"AFETR","ELEMENT_SET_NO":"999","EPHEMERIS_TYPE":"0","FILE":"3285100","CLASSIFICATION_TYPE":"U","LAUNCH_DATE":"2021-05-26","ECCENTRICITY":"0.00016720","TLE_LINE2":"2 48682  53.0543 333.3306 0001672  67.3088 149.2498 15.06393638 38898","CENTER_NAME":"EARTH","MEAN_ANOMALY":"149.2498","NORAD_CAT_ID":"48682","OBJECT_TYPE":"PAYLOAD","OBJECT_ID":"2021-044AW","TIME_SYSTEM":"UTC","REF_FRAME":"TEME","REV_AT_EPOCH":"3889","RCS_SIZE":"LARGE","INCLINATION":"53.0543","BSTAR":"-0.00046194000000","SEMIMAJOR_AXIS":"6925.368","APOAPSIS":"548.391","OBJECT_NAME":"STARLINK-2743","GP_ID":"194748827","MEAN_MOTION_DDOT":"0.0000000000000","RA_OF_ASC_NODE":"333.3306","DECAY_DATE":null,"EPOCH":"2022-01-27T22:00:00.999936","MEAN_ELEMENT_THEORY":"SGP4","MEAN_MOTION":"15.06393638","PERIAPSIS":"546.075","MEAN_MOTION_DOT":"-0.00007154"},{"MEAN_ELEMENT_THEORY":"SGP4","PERIAPSIS":"546.095","MEAN_MOTION":"15.06407800","MEAN_MOTION_DOT":"-0.00000123","RA_OF_ASC_NODE":"335.5799","MEAN_MOTION_DDOT":"0.0000000000000","DECAY_DATE":null,"EPOCH":"2022-01-27T10:00:01.999584","APOAPSIS":"548.284","OBJECT_NAME":"STARLINK-2756","SEMIMAJOR_AXIS":"6925.325","GP_ID":"194744645","RCS_SIZE":"LARGE","REV_AT_EPOCH":"358","INCLINATION":"53.0564","BSTAR":"0.00001065800000","NORAD_CAT_ID":"48683","MEAN_ANOMALY":"116.5009","OBJECT_TYPE":"PAYLOAD","TIME_SYSTEM":"UTC","OBJECT_ID":"2021-044AX","REF_FRAME":"TEME","LAUNCH_DATE":"2021-05-26","ECCENTRICITY":"0.00015800","CLASSIFICATION_TYPE":"U","TLE_LINE2":"2 48683  53.0564 335.5799 0001580  67.1275 116.5009 15.06407800  3586","CENTER_NAME":"EARTH","EPHEMERIS_TYPE":"0","FILE":"3284946","TLE_LINE1":"1 48683U 21044AX  22027.41668981 -.00000123  00000-0  10658-4 0  9997","PERIOD":"95.592","SITE":"AFETR","COUNTRY_CODE":"US","ARG_OF_PERICENTER":"67.1275","ELEMENT_SET_NO":"999"},{"REF_FRAME":"TEME","TIME_SYSTEM":"UTC","OBJECT_ID":"2021-044AY","OBJECT_TYPE":"PAYLOAD","NORAD_CAT_ID":"48684","MEAN_ANOMALY":"294.4433","CENTER_NAME":"EARTH","TLE_LINE2":"2 48684  53.0565 351.6771 0001662  65.6729 294.4433 15.06411738 37731","ECCENTRICITY":"0.00016620","LAUNCH_DATE":"2021-05-26","CLASSIFICATION_TYPE":"U","FILE":"3284946","EPHEMERIS_TYPE":"0","ELEMENT_SET_NO":"999","SITE":"AFETR","COUNTRY_CODE":"US","ARG_OF_PERICENTER":"65.6729","TLE_LINE1":"1 48684U 21044AY  22027.17323216  .00003131  00000-0  22895-3 0  9996","PERIOD":"95.591","MEAN_MOTION_DOT":"0.00003131","PERIAPSIS":"546.027","MEAN_MOTION":"15.06411738","MEAN_ELEMENT_THEORY":"SGP4","EPOCH":"2022-01-27T04:09:27.258624","DECAY_DATE":null,"MEAN_MOTION_DDOT":"0.0000000000000","RA_OF_ASC_NODE":"351.6771","GP_ID":"194743401","OBJECT_NAME":"STARLINK-2741","APOAPSIS":"548.329","SEMIMAJOR_AXIS":"6925.313","BSTAR":"0.00022895000000","INCLINATION":"53.0565","RCS_SIZE":"LARGE","REV_AT_EPOCH":"3773"},{"EPHEMERIS_TYPE":"0","FILE":"3285105","SITE":"AFETR","COUNTRY_CODE":"US","ARG_OF_PERICENTER":"85.8807","ELEMENT_SET_NO":"999","TLE_LINE1":"1 48685U 21044AZ  22027.91667824 -.00007728  00000-0 -50049-3 0  9995","PERIOD":"95.592","TIME_SYSTEM":"UTC","OBJECT_ID":"2021-044AZ","REF_FRAME":"TEME","NORAD_CAT_ID":"48685","MEAN_ANOMALY":"110.6827","OBJECT_TYPE":"PAYLOAD","TLE_LINE2":"2 48685  53.0558 333.3265 0001366  85.8807 110.6827 15.06396949 38903","CENTER_NAME":"EARTH","LAUNCH_DATE":"2021-05-26","CLASSIFICATION_TYPE":"U","ECCENTRICITY":"0.00013660","APOAPSIS":"548.169","OBJECT_NAME":"STARLINK-2751","SEMIMAJOR_AXIS":"6925.358","GP_ID":"194748403","INCLINATION":"53.0558","BSTAR":"-0.00050049000000","RCS_SIZE":"LARGE","REV_AT_EPOCH":"3890","MEAN_MOTION_DOT":"-0.00007728","MEAN_ELEMENT_THEORY":"SGP4","PERIAPSIS":"546.277","MEAN_MOTION":"15.06396949","EPOCH":"2022-01-27T22:00:00.999936","RA_OF_ASC_NODE":"333.3265","MEAN_MOTION_DDOT":"0.0000000000000","DECAY_DATE":null},{"CLASSIFICATION_TYPE":"U","LAUNCH_DATE":"2021-05-26","ECCENTRICITY":"0.00017670","CENTER_NAME":"EARTH","TLE_LINE2":"2 48686  53.0554 338.3294 0001767  68.2523 280.8280 15.06423135 38880","OBJECT_TYPE":"PAYLOAD","MEAN_ANOMALY":"280.8280","NORAD_CAT_ID":"48686","REF_FRAME":"TEME","OBJECT_ID":"2021-044BA","TIME_SYSTEM":"UTC","TLE_LINE1":"1 48686U 21044BA  22027.91667824 -.00045535  00000-0 -30557-2 0  9995","PERIOD":"95.591","ELEMENT_SET_NO":"999","ARG_OF_PERICENTER":"68.2523","COUNTRY_CODE":"US","SITE":"AFETR","EPHEMERIS_TYPE":"0","FILE":"3284997","DECAY_DATE":null,"RA_OF_ASC_NODE":"338.3294","MEAN_MOTION_DDOT":"0.0000000000000","EPOCH":"2022-01-27T22:00:00.999936","MEAN_MOTION":"15.06423135","PERIAPSIS":"545.919","MEAN_ELEMENT_THEORY":"SGP4","MEAN_MOTION_DOT":"-0.00045535","REV_AT_EPOCH":"3888","RCS_SIZE":"LARGE","BSTAR":"-0.00305570000000","INCLINATION":"53.0554","GP_ID":"194746086","SEMIMAJOR_AXIS":"6925.278","OBJECT_NAME":"STARLINK-2629","APOAPSIS":"548.366"},{"TLE_LINE1":"1 48687U 21044BB  22027.41668981 -.00005930  00000-0 -37961-3 0  9998","PERIOD":"95.593","ELEMENT_SET_NO":"999","ARG_OF_PERICENTER":"64.5528","COUNTRY_CODE":"US","SITE":"AFETR","EPHEMERIS_TYPE":"0","FILE":"3284946","LAUNCH_DATE":"2021-05-26","CLASSIFICATION_TYPE":"U","ECCENTRICITY":"0.00016090","CENTER_NAME":"EARTH","TLE_LINE2":"2 48687  53.0569 330.5797 0001609  64.5528  81.4796 15.06389331  3594","OBJECT_TYPE":"PAYLOAD","MEAN_ANOMALY":"81.4796","NORAD_CAT_ID":"48687","REF_FRAME":"TEME","OBJECT_ID":"2021-044BB","TIME_SYSTEM":"UTC","REV_AT_EPOCH":"359","RCS_SIZE":"LARGE","BSTAR":"-0.00037961000000","INCLINATION":"53.0569","GP_ID":"194744146","SEMIMAJOR_AXIS":"6925.381","OBJECT_NAME":"STARLINK-2627","APOAPSIS":"548.361","DECAY_DATE":null,"MEAN_MOTION_DDOT":"0.0000000000000","RA_OF_ASC_NODE":"330.5797","EPOCH":"2022-01-27T10:00:01.999584","MEAN_MOTION":"15.06389331","PERIAPSIS":"546.132","MEAN_ELEMENT_THEORY":"SGP4","MEAN_MOTION_DOT":"-0.00005930"}];
